DMSP 5D-3 F16 (USA 172) 
1 28054U 03048A   26197.30808137 -.00000053  00000+0 -39959-5 0  9998
2 28054  98.9897 221.3280 0008079  68.3870 353.0009 14.14484788173601
METEOSAT-9 (MSG-2)      
1 28912U 05049B   26197.20766718  .00000110  00000+0  00000+0 0  9992
2 28912   9.4254  53.8775 0002234 356.2373   4.3493  1.00272530  7294
DMSP 5D-3 F17 (USA 191) 
1 29522U 06050A   26197.30270642 -.00000038  00000+0  26839-5 0  9994
2 29522  98.7388 203.2780 0009668 339.6447  20.4340 14.14996193 16548
FENGYUN 3A              
1 32958U 08026A   26197.29793530  .00000023  00000+0  31221-4 0  9993
2 32958  98.6886 137.5874 0009641  49.0973 311.1037 14.19576604939539
EWS-G3 (GOES 14)        
1 35491U 09033A   26197.29452979 -.00000370  00000+0  00000+0 0  9998
2 35491   1.7629  82.6780 0001947  40.0398  41.8252  1.00097572  6880
DMSP 5D-3 F18 (USA 210) 
1 35951U 09057A   26197.27591434  .00000169  00000+0  11035-3 0  9992
2 35951  98.9057 177.9846 0011295 162.4652 197.6913 14.14912096863706
EWS-G2 (GOES 15)        
1 36411U 10008A   26197.13988442  .00000011  00000+0  00000+0 0  9998
2 36411   1.3556  82.4456 0005264  54.0896 271.0977  1.00268468 59928
COMS 1                  
1 36744U 10032A   26197.11908432 -.00000252  00000+0  00000+0 0  9991
2 36744   4.8776  75.0054 0011229  15.0057 205.2047  0.99167726 51375
FENGYUN 3B              
1 37214U 10059A   26197.30425069 -.00000173  00000+0 -66329-4 0  9998
2 37214  98.9605 243.4399 0023189 103.4637 347.6435 14.14846264811548
SUOMI NPP               
1 37849U 11061A   26197.31026041  .00000013  00000+0  27040-4 0  9992
2 37849  98.7955 137.9884 0000793 207.7963 152.3171 14.19522679762572
METEOSAT-10 (MSG-3)     
1 38552U 12035B   26197.26991634 -.00000020  00000+0  00000+0 0  9990
2 38552   4.7388  60.8759 0001194  16.4292 314.0124  1.00271111 51149
METOP-B                 
1 38771U 12049A   26197.26104154  .00000047  00000+0  41102-4 0  9992
2 38771  98.6490 248.1779 0001108 249.3234 110.7825 14.21446589717394
INSAT-3D                
1 39216U 13038B   26197.29556980 -.00000351  00000+0  00000+0 0  9993
2 39216   1.9993  82.1706 0000525  76.9678  10.8799  1.00268051 47371
FENGYUN 3C              
1 39260U 13052A   26197.23190275  .00000020  00000+0  31456-4 0  9999
2 39260  98.4999 169.7762 0013626 302.7545  57.2316 14.15760923662671
METEOR-M 2              
1 40069U 14037A   26197.28698781  .00000109  00000+0  69306-4 0  9995
2 40069  98.5128 171.9977 0005120 323.7612  36.3219 14.21469534623450
HIMAWARI-8              
1 40267U 14060A   26197.29773648 -.00000286  00000+0  00000+0 0  9996
2 40267   0.0179  17.5739 0001116 149.9581  14.4525  1.00271161 43058
FENGYUN 2G              
1 40367U 14090A   26197.07566270 -.00000315  00000+0  00000+0 0  9990
2 40367   5.7094  72.4622 0004256 172.6495 175.3803  1.00280561 42287
METEOSAT-11 (MSG-4)     
1 40732U 15034A   26197.27173635  .00000049  00000+0  00000+0 0  9999
2 40732   3.2716  70.9243 0002144 354.4417 335.8161  1.00272196  7508
ELEKTRO-L 2             
1 41105U 15074A   26196.98185514 -.00000131  00000+0  00000+0 0  9997
2 41105   6.7640  70.1648 0000984 213.4147 349.2070  1.00272041 38794
SENTINEL-3A             
1 41335U 16011A   26197.25032244  .00000046  00000+0  36892-4 0  9993
2 41335  98.6237 264.2145 0001354  89.5572 270.5763 14.26739936542209
INSAT-3DR               
1 41752U 16054A   26197.14205110 -.00000087  00000+0  00000+0 0  9998
2 41752   0.0723  88.7235 0010545 181.2050 149.1809  1.00270781 36106
HIMAWARI-9              
1 41836U 16064A   26197.29782315  .00000000  00000+0  00000+0 0  9999
2 41836   0.0084 325.3581 0002360 215.3705   1.3663  1.00267675 35503
GOES 16                 
1 41866U 16071A   26197.24419882 -.00000102  00000+0  00000+0 0  9995
2 41866   0.4067  85.4626 0000550  91.4201 100.4107  1.00271072 35395
FENGYUN 4A              
1 41882U 16077A   26197.29444312 -.00000369  00000+0  00000+0 0  9995
2 41882   2.3943  79.9424 0008496 159.6269 284.2898  1.00267555 35220
CYGFM05                 
1 41884U 16078A   26197.02678188  .00015884  00000+0  20609-3 0  9997
2 41884  34.9569  69.4362 0005792  45.5775 314.5423 15.57880539533250
CYGFM04                 
1 41885U 16078B   26196.96813023  .00021330  00000+0  22598-3 0  9991
2 41885  34.9324  36.0131 0004131  93.9357 266.1842 15.63112706533509
CYGFM02                 
1 41886U 16078C   26197.22975875  .00024305  00000+0  22557-3 0  9996
2 41886  34.9406  27.9069 0004877 100.6649 259.4628 15.66411645533725
CYGFM01                 
1 41887U 16078D   26197.06657207  .00016315  00000+0  20595-3 0  9997
2 41887  34.9396  69.9893 0005819  38.7960 321.3182 15.58601671533218
CYGFM08                 
1 41888U 16078E   26197.29430118  .00018751  00000+0  21165-3 0  9993
2 41888  34.9431  47.2574 0006059  80.9694 279.1717 15.61497989533521
CYGFM07                 
1 41890U 16078G   26197.25153771  .00018553  00000+0  20863-3 0  9993
2 41890  34.9447  35.8580 0004562  97.7221 262.4023 15.61605183533544
CYGFM03                 
1 41891U 16078H   26196.96703013  .00019725  00000+0  22196-3 0  9994
2 41891  34.9402  39.6858 0004433  75.5494 284.5723 15.61581462533476
